OBJECT_NAME,OBJECT_ID,EPOCH,MEAN_MOTION,ECCENTRICITY,INCLINATION,RA_OF_ASC_NODE,ARG_OF_PERICENTER,MEAN_ANOMALY,EPHEMERIS_TYPE,CLASSIFICATION_TYPE,NORAD_CAT_ID,ELEMENT_SET_NO,REV_AT_EPOCH,BSTAR,MEAN_MOTION_DOT,MEAN_MOTION_DDOT
CARTOSAT-2E,2017-036C,2026-05-14T04:34:28.096608,15.19197856,.0004423,97.4302,194.5476,70.7487,289.4226,0,U,42767,999,49298,.30194E-4,.568E-5,0
IRIDIUM 113,2017-039A,2026-05-14T01:17:27.220128,14.34217632,.0002243,86.3970,336.4532,92.6980,267.4473,0,U,42803,999,46629,.13942E-4,.59E-6,0
NORSAT 2,2017-042D,2026-05-14T00:39:31.014720,15.21212939,.0010231,97.4020,308.0335,164.5414,195.6136,0,U,42828,999,48254,.35626E-3,.7893E-4,0
TECHNOSAT,2017-042E,2026-05-14T00:06:54.624096,15.04734717,.0017106,97.4240,292.9770,206.8425,153.1918,0,U,42829,999,48156,.13188E-3,.1804E-4,0
FLYING LAPTOP,2017-042G,2026-05-14T04:29:45.610944,15.00912763,.0017709,97.4533,291.0656,238.0148,121.9356,0,U,42831,999,48135,.15677E-3,.1945E-4,0
WNISAT 1R,2017-042L,2026-05-13T23:24:23.881824,15.01598620,.0010227,97.4795,291.3306,281.5275,78.4802,0,U,42835,999,48137,.13584E-3,.1705E-4,0
LEMUR-2-GREENBERG,2017-042N,2026-05-14T00:42:24.452352,15.30228620,.0010324,97.3809,314.8451,123.6829,236.5398,0,U,42837,999,48316,.4056E-3,.1181E-3,0
LEMUR-2-FURIAUS,2017-042R,2026-05-13T23:57:31.423104,15.29084507,.0007927,97.3758,312.8484,175.7509,184.3799,0,U,42840,999,48298,.45567E-3,.12811E-3,0
CORVUS BC2,2017-042X,2026-05-14T04:19:09.021792,15.06071686,.0011968,97.4037,296.8650,222.6707,137.3592,0,U,42846,999,48194,.15573E-3,.2218E-4,0
CORVUS BC1,2017-042Y,2026-05-14T01:05:37.545216,15.06242665,.0011402,97.4069,297.5276,197.1907,162.8936,0,U,42847,999,48195,.1456E-3,.2079E-4,0
VRSS-2,2017-060A,2026-05-14T04:57:14.798592,14.81136713,.0016266,97.6546,173.4604,206.3173,153.7216,0,U,42954,999,46342,.95061E-4,.69E-5,0
MOHAMMED VI-A,2017-070A,2026-05-14T04:54:28.524384,14.77089934,.0001416,97.9566,207.0007,104.8299,255.3068,0,U,43005,999,45896,-.31638E-4,-.274E-5,0
FENGYUN 3D,2017-072A,2026-05-14T04:16:55.125120,14.19733195,.0002194,99.0106,107.9903,118.6856,241.4540,0,U,43010,999,44016,.1627E-3,.298E-5,0
NOAA 20 (JPSS-1),2017-073A,2026-05-14T04:01:37.308288,14.19504816,.0001489,98.7761,73.9354,50.0763,310.0543,0,U,43013,999,43964,.33321E-4,.26E-6,0
MAKERSAT 0,2017-073D,2026-05-13T14:43:18.147072,15.30593809,.01115762,97.4683,15.8945,36.9242,323.9613,0,U,43016,999,46117,.4817483E-3,.17217E-3,0
RADFXSAT (FOX-1B),2017-073E,2026-05-13T03:24:38.237472,15.12056379,.01541223,97.4759,1.0860,89.6523,272.2366,0,U,43017,999,46009,.24989069E-3,.567E-4,0
JILIN-1 04,2017-074A,2026-05-14T03:31:09.425568,15.41553339,.0002905,97.4823,242.8833,333.7975,26.3124,0,U,43022,999,46902,.20497E-3,.852E-4,0
JILIN-1 05,2017-074B,2026-05-14T04:36:21.356640,15.33331782,.0004974,97.4833,239.9077,5.4205,354.7090,0,U,43023,999,46879,.16948E-3,.5379E-4,0
JILIN-1 06,2017-074C,2026-05-14T05:26:14.055648,15.33300011,.0006964,97.4761,236.9905,13.0880,347.0541,0,U,43024,999,46863,.12276E-3,.3871E-4,0
IRIDIUM 116,2017-083C,2026-05-14T02:21:23.633280,14.34218989,.0002091,86.3962,336.2600,79.5056,280.6375,0,U,43072,999,43928,.62692E-4,.195E-5,0
IRIDIUM 130,2017-083D,2026-05-14T01:35:43.230048,14.34217683,.0002264,86.3970,336.5451,81.9949,278.1504,0,U,43073,999,43922,.80511E-5,.42E-6,0
LKW-2,2017-084A,2026-05-14T04:40:33.572928,15.25871784,.0002595,97.1222,175.5866,50.0010,310.1456,0,U,43080,999,46650,.17636E-3,.4449E-4,0
SUPERVIEW-1 03,2018-002A,2026-05-14T03:40:39.306144,15.38178210,.0046423,97.3133,219.0732,304.2087,55.4763,0,U,43099,999,46313,.25685E-3,.9934E-4,0
CARTOSAT-2F,2018-004A,2026-05-13T15:06:14.306400,15.19200869,.00017749,97.4581,193.5962,57.0492,303.0913,0,U,43111,999,46208,.14487477E-3,.2981E-4,0
LKW-3,2018-006A,2026-05-14T05:14:37.409856,15.34558608,.000414,97.6575,293.4920,75.1893,284.9807,0,U,43146,999,46350,.1325E-3,.4351E-4,0
ASNARO-2,2018-007A,2026-05-13T19:27:16.310016,15.22420539,.00017827,97.3985,141.2721,88.4723,271.6718,0,U,43152,999,46218,.2504714E-3,.5721E-4,0
JILIN-1 07,2018-008E,2026-05-14T04:21:41.306112,15.34137882,.0008735,97.1792,155.0293,167.2156,192.9310,0,U,43159,999,45978,.17861E-3,.583E-4,0
JILIN-1 08,2018-008F,2026-05-14T03:52:14.843424,15.33253132,.0006089,97.1822,154.3585,177.0075,183.1205,0,U,43160,999,45973,.1803E-3,.572E-4,0
