CARTOSAT-2E             
1 42767U 17036C   26134.19060297  .00000568  00000+0  30194-4 0  9992
2 42767  97.4302 194.5476 0004423  70.7487 289.4226 15.19197856492982
IRIDIUM 113             
1 42803U 17039A   26134.05378727  .00000059  00000+0  13942-4 0  9998
2 42803  86.3970 336.4532 0002243  92.6980 267.4473 14.34217632466296
NORSAT 2                
1 42828U 17042D   26134.02744230  .00007893  00000+0  35626-3 0  9997
2 42828  97.4020 308.0335 0010231 164.5414 195.6136 15.21212939482541
TECHNOSAT               
1 42829U 17042E   26134.00479889  .00001804  00000+0  13188-3 0  9996
2 42829  97.4240 292.9770 0017106 206.8425 153.1918 15.04734717481562
FLYING LAPTOP           
1 42831U 17042G   26134.18733346  .00001945  00000+0  15677-3 0  9990
2 42831  97.4533 291.0656 0017709 238.0148 121.9356 15.00912763481352
WNISAT 1R               
1 42835U 17042L   26133.97527641  .00001705  00000+0  13584-3 0  9998
2 42835  97.4795 291.3306 0010227 281.5275  78.4802 15.01598620481370
LEMUR-2-GREENBERG       
1 42837U 17042N   26134.02944968  .00011810  00000+0  40560-3 0  9994
2 42837  97.3809 314.8451 0010324 123.6829 236.5398 15.30228620483166
LEMUR-2-FURIAUS         
1 42840U 17042R   26133.99828036  .00012811  00000+0  45567-3 0  9994
2 42840  97.3758 312.8484 0007927 175.7509 184.3799 15.29084507482981
CORVUS BC2              
1 42846U 17042X   26134.17996553  .00002218  00000+0  15573-3 0  9995
2 42846  97.4037 296.8650 0011968 222.6707 137.3592 15.06071686481949
CORVUS BC1              
1 42847U 17042Y   26134.04557344  .00002079  00000+0  14560-3 0  9993
2 42847  97.4069 297.5276 0011402 197.1907 162.8936 15.06242665481951
VRSS-2                  
1 42954U 17060A   26134.20642128  .00000690  00000+0  95061-4 0  9998
2 42954  97.6546 173.4604 0016266 206.3173 153.7216 14.81136713463420
MOHAMMED VI-A           
1 43005U 17070A   26134.20449681 -.00000274  00000+0 -31638-4 0  9996
2 43005  97.9566 207.0007 0001416 104.8299 255.3068 14.77089934458960
FENGYUN 3D              
1 43010U 17072A   26134.17841580  .00000298  00000+0  16270-3 0  9992
2 43010  99.0106 107.9903 0002194 118.6856 241.4540 14.19733195440163
NOAA 20 (JPSS-1)        
1 43013U 17073A   26134.16779292  .00000026  00000+0  33321-4 0  9991
2 43013  98.7761  73.9354 0001489  50.0763 310.0543 14.19504816439646
MAKERSAT 0              
1 43016U 17073D   26133.61340448  .00017217  00000+0  48175-3 0  9992
2 43016  97.4683  15.8945 0111576  36.9242 323.9613 15.30593809461171
RADFXSAT (FOX-1B)       
1 43017U 17073E   26133.14210923  .00005670  00000+0  24989-3 0  9992
2 43017  97.4759   1.0860 0154122  89.6523 272.2366 15.12056379460097
JILIN-1 04              
1 43022U 17074A   26134.14663687  .00008520  00000+0  20497-3 0  9996
2 43022  97.4823 242.8833 0002905 333.7975  26.3124 15.41553339469027
JILIN-1 05              
1 43023U 17074B   26134.19191385  .00005379  00000+0  16948-3 0  9998
2 43023  97.4833 239.9077 0004974   5.4205 354.7090 15.33331782468793
JILIN-1 06              
1 43024U 17074C   26134.22655157  .00003871  00000+0  12276-3 0  9990
2 43024  97.4761 236.9905 0006964  13.0880 347.0541 15.33300011468636
IRIDIUM 116             
1 43072U 17083C   26134.09819020  .00000195  00000+0  62692-4 0  9993
2 43072  86.3962 336.2600 0002091  79.5056 280.6375 14.34218989439282
IRIDIUM 130             
1 43073U 17083D   26134.06647257  .00000042  00000+0  80511-5 0  9994
2 43073  86.3970 336.5451 0002264  81.9949 278.1504 14.34217683439229
LKW-2                   
1 43080U 17084A   26134.19483302  .00004449  00000+0  17636-3 0  9997
2 43080  97.1222 175.5866 0002595  50.0010 310.1456 15.25871784466504
SUPERVIEW-1 03          
1 43099U 18002A   26134.15323271  .00009934  00000+0  25685-3 0  9999
2 43099  97.3133 219.0732 0046423 304.2087  55.4763 15.38178210463133
CARTOSAT-2F             
1 43111U 18004A   26133.62933225  .00002981  00000+0  14487-3 0  9996
2 43111  97.4581 193.5962 0001774  57.0492 303.0913 15.19200869462087
LKW-3                   
1 43146U 18006A   26134.21848854  .00004351  00000+0  13250-3 0  9995
2 43146  97.6575 293.4920 0004140  75.1893 284.9807 15.34558608463501
ASNARO-2                
1 43152U 18007A   26133.81060544  .00005721  00000+0  25047-3 0  9999
2 43152  97.3985 141.2721 0001782  88.4723 271.6718 15.22420539462182
JILIN-1 07              
1 43159U 18008E   26134.18172808  .00005830  00000+0  17861-3 0  9991
2 43159  97.1792 155.0293 0008735 167.2156 192.9310 15.34137882459785
JILIN-1 08              
1 43160U 18008F   26134.16128291  .00005720  00000+0  18030-3 0  9995
2 43160  97.1822 154.3585 0006089 177.0075 183.1205 15.33253132459732
